[
    {
        "Altitude(m)": 702828.2998617395,
        "Argument of Periapsis(deg)": 0.006834072711976239,
        "Eccentricity": 0.0,
        "Inclination(deg)": 45.0,
        "Latitude(deg)": 6.636636406832472,
        "Longitude(deg)": 32.90247198059971,
        "Mean Anomaly(deg)": -189.44367001151156,
        "RAAN(deg)": 319.99354883512507,
        "Satellite Name": "Constellation 1 1418",
        "Satellite Number": 1418,
        "Semi-Major Axis(m)": 7083131.272910544,
        "Time(s)": 114
    },
    {
        "Altitude(m)": 702830.720681741,
        "Argument of Periapsis(deg)": 0.006894020718221645,
        "Eccentricity": 0.0,
        "Inclination(deg)": 45.0,
        "Latitude(deg)": 6.593705954048647,
        "Longitude(deg)": 32.94180224173831,
        "Mean Anomaly(deg)": -189.38296887126162,
        "RAAN(deg)": 319.9934922459595,
        "Satellite Name": "Constellation 1 1418",
        "Satellite Number": 1418,
        "Semi-Major Axis(m)": 7083131.272910544,
        "Time(s)": 115
    },
    {
        "Altitude(m)": 702833.1620306856,
        "Argument of Periapsis(deg)": 0.006953968724467052,
        "Eccentricity": 0.0,
        "Inclination(deg)": 45.0,
        "Latitude(deg)": 6.550771699246978,
        "Longitude(deg)": 32.981124981491895,
        "Mean Anomaly(deg)": -189.3222677310117,
        "RAAN(deg)": 319.99343565679396,
        "Satellite Name": "Constellation 1 1418",
        "Satellite Number": 1418,
        "Semi-Major Axis(m)": 7083131.272910544,
        "Time(s)": 116
    },
    {
        "Altitude(m)": 702835.6239162774,
        "Argument of Periapsis(deg)": 0.007013916730712457,
        "Eccentricity": 0.0,
        "Inclination(deg)": 45.0,
        "Latitude(deg)": 6.507833668475047,
        "Longitude(deg)": 33.020440249455305,
        "Mean Anomaly(deg)": -189.26156659076182,
        "RAAN(deg)": 319.9933790676283,
        "Satellite Name": "Constellation 1 1418",
        "Satellite Number": 1418,
        "Semi-Major Axis(m)": 7083131.272910544,
        "Time(s)": 117
    },
    {
        "Altitude(m)": 702838.1063461493,
        "Argument of Periapsis(deg)": 0.007073864736957864,
        "Eccentricity": 0.0,
        "Inclination(deg)": 45.0,
        "Latitude(deg)": 6.464891887765809,
        "Longitude(deg)": 33.05974809520736,
        "Mean Anomaly(deg)": -189.20086545051188,
        "RAAN(deg)": 319.9933224784628,
        "Satellite Name": "Constellation 1 1418",
        "Satellite Number": 1418,
        "Semi-Major Axis(m)": 7083131.272910544,
        "Time(s)": 118
    },
    {
        "Altitude(m)": 702840.6093278233,
        "Argument of Periapsis(deg)": 0.0071338127432032696,
        "Eccentricity": 0.0,
        "Inclination(deg)": 45.0,
        "Latitude(deg)": 6.42194638313804,
        "Longitude(deg)": 33.09904840021326,
        "Mean Anomaly(deg)": -189.140164310262,
        "RAAN(deg)": 319.9932658892972,
        "Satellite Name": "Constellation 1 1418",
        "Satellite Number": 1418,
        "Semi-Major Axis(m)": 7083131.272910544,
        "Time(s)": 119
    },
    {
        "Altitude(m)": 702843.1328687455,
        "Argument of Periapsis(deg)": 0.007193760749448674,
        "Eccentricity": 0.0,
        "Inclination(deg)": 45.0,
        "Latitude(deg)": 6.37899718059691,
        "Longitude(deg)": 33.138341550213404,
        "Mean Anomaly(deg)": -189.0794631700121,
        "RAAN(deg)": 319.99320930013164,
        "Satellite Name": "Constellation 1 1418",
        "Satellite Number": 1418,
        "Semi-Major Axis(m)": 7083131.272910544,
        "Time(s)": 120
    },
    {
        "Altitude(m)": 702845.6769762695,
        "Argument of Periapsis(deg)": 0.007253708755694079,
        "Eccentricity": 0.0,
        "Inclination(deg)": 45.0,
        "Latitude(deg)": 6.336044306132814,
        "Longitude(deg)": 33.17762742664116,
        "Mean Anomaly(deg)": -189.01876202976217,
        "RAAN(deg)": 319.9931527109661,
        "Satellite Name": "Constellation 1 1418",
        "Satellite Number": 1418,
        "Semi-Major Axis(m)": 7083131.272910544,
        "Time(s)": 121
    },
    {
        "Altitude(m)": 702848.2416576586,
        "Argument of Periapsis(deg)": 0.0073136567619394854,
        "Eccentricity": 0.0,
        "Inclination(deg)": 45.0,
        "Latitude(deg)": 6.293087785722627,
        "Longitude(deg)": 33.21690607901066,
        "Mean Anomaly(deg)": -188.95806088951232,
        "RAAN(deg)": 319.9930961218005,
        "Satellite Name": "Constellation 1 1418",
        "Satellite Number": 1418,
        "Semi-Major Axis(m)": 7083131.272910544,
        "Time(s)": 122
    },
    {
        "Altitude(m)": 702850.8269200771,
        "Argument of Periapsis(deg)": 0.0073736047681848904,
        "Eccentricity": 0.0,
        "Inclination(deg)": 45.0,
        "Latitude(deg)": 6.250127645329005,
        "Longitude(deg)": 33.25617755682056,
        "Mean Anomaly(deg)": -188.89735974926236,
        "RAAN(deg)": 319.99303953263495,
        "Satellite Name": "Constellation 1 1418",
        "Satellite Number": 1418,
        "Semi-Major Axis(m)": 7083131.272910544,
        "Time(s)": 123
    },
    {
        "Altitude(m)": 702853.4327706133,
        "Argument of Periapsis(deg)": 0.007433552774430298,
        "Eccentricity": 0.0,
        "Inclination(deg)": 45.0,
        "Latitude(deg)": 6.207163910901245,
        "Longitude(deg)": 33.295441909553375,
        "Mean Anomaly(deg)": -188.8366586090125,
        "RAAN(deg)": 319.99298294346937,
        "Satellite Name": "Constellation 1 1418",
        "Satellite Number": 1418,
        "Semi-Major Axis(m)": 7083131.272910544,
        "Time(s)": 124
    },
    {
        "Altitude(m)": 702856.0592162556,
        "Argument of Periapsis(deg)": 0.007493500780675703,
        "Eccentricity": 0.0,
        "Inclination(deg)": 45.0,
        "Latitude(deg)": 6.164196608374567,
        "Longitude(deg)": 33.33469918667639,
        "Mean Anomaly(deg)": -188.77595746876256,
        "RAAN(deg)": 319.99292635430385,
        "Satellite Name": "Constellation 1 1418",
        "Satellite Number": 1418,
        "Semi-Major Axis(m)": 7083131.272910544,
        "Time(s)": 125
    },
    {
        "Altitude(m)": 702858.706263901,
        "Argument of Periapsis(deg)": 0.007553448786921108,
        "Eccentricity": 0.0,
        "Inclination(deg)": 45.0,
        "Latitude(deg)": 6.121225763670741,
        "Longitude(deg)": 33.3739492695439,
        "Mean Anomaly(deg)": -188.71525632851277,
        "RAAN(deg)": 319.9928697651382,
        "Satellite Name": "Constellation 1 1418",
        "Satellite Number": 1418,
        "Semi-Major Axis(m)": 7083131.272910544,
        "Time(s)": 126
    },
    {
        "Altitude(m)": 702861.3739203679,
        "Argument of Periapsis(deg)": 0.007613396793166514,
        "Eccentricity": 0.0,
        "Inclination(deg)": 45.0,
        "Latitude(deg)": 6.078251402698429,
        "Longitude(deg)": 33.41319254378646,
        "Mean Anomaly(deg)": -188.65455518826283,
        "RAAN(deg)": 319.99281317597263,
        "Satellite Name": "Constellation 1 1418",
        "Satellite Number": 1418,
        "Semi-Major Axis(m)": 7083131.272910544,
        "Time(s)": 127
    },
    {
        "Altitude(m)": 702864.0621923648,
        "Argument of Periapsis(deg)": 0.007673344799411918,
        "Eccentricity": 0.0,
        "Inclination(deg)": 45.0,
        "Latitude(deg)": 6.035273551352466,
        "Longitude(deg)": 33.45242889072759,
        "Mean Anomaly(deg)": -188.59385404801284,
        "RAAN(deg)": 319.9927565868071,
        "Satellite Name": "Constellation 1 1418",
        "Satellite Number": 1418,
        "Semi-Major Axis(m)": 7083131.272910544,
        "Time(s)": 128
    },
    {
        "Altitude(m)": 702866.7710865329,
        "Argument of Periapsis(deg)": 0.007733292805657325,
        "Eccentricity": 0.0,
        "Inclination(deg)": 45.0,
        "Latitude(deg)": 5.99229223551453,
        "Longitude(deg)": 33.4916583597728,
        "Mean Anomaly(deg)": -188.533152907763,
        "RAAN(deg)": 319.9926999976415,
        "Satellite Name": "Constellation 1 1418",
        "Satellite Number": 1418,
        "Semi-Major Axis(m)": 7083131.272910544,
        "Time(s)": 129
    },
    {
        "Altitude(m)": 702869.5006093993,
        "Argument of Periapsis(deg)": 0.00779324081190273,
        "Eccentricity": 0.0,
        "Inclination(deg)": 45.0,
        "Latitude(deg)": 5.949307481053083,
        "Longitude(deg)": 33.53088100031255,
        "Mean Anomaly(deg)": -188.47245176751318,
        "RAAN(deg)": 319.992643408476,
        "Satellite Name": "Constellation 1 1418",
        "Satellite Number": 1418,
        "Semi-Major Axis(m)": 7083131.272910544,
        "Time(s)": 130
    },
    {
        "Altitude(m)": 702872.2507674207,
        "Argument of Periapsis(deg)": 0.007853188818148135,
        "Eccentricity": 0.0,
        "Inclination(deg)": 45.0,
        "Latitude(deg)": 5.906319313823388,
        "Longitude(deg)": 33.57009686172219,
        "Mean Anomaly(deg)": -188.41175062726313,
        "RAAN(deg)": 319.99258681931036,
        "Satellite Name": "Constellation 1 1418",
        "Satellite Number": 1418,
        "Semi-Major Axis(m)": 7083131.272910544,
        "Time(s)": 131
    },
    {
        "Altitude(m)": 702875.0215669484,
        "Argument of Periapsis(deg)": 0.007913136824393542,
        "Eccentricity": 0.0,
        "Inclination(deg)": 45.0,
        "Latitude(deg)": 5.863327759667972,
        "Longitude(deg)": 33.609305993362,
        "Mean Anomaly(deg)": -188.3510494870133,
        "RAAN(deg)": 319.9925302301448,
        "Satellite Name": "Constellation 1 1418",
        "Satellite Number": 1418,
        "Semi-Major Axis(m)": 7083131.272910544,
        "Time(s)": 132
    }
]